FLOCK 4Y-26             
1 55070U 23001BP  24158.14022682  .00019502  00000+0  70239-3 0  9998
2 55070  97.4292 220.2389 0012186 197.3992 162.6832 15.28542288 79106
FLOCK 4Y-8              
1 55071U 23001BQ  24158.15707408  .00027807  00000+0  96234-3 0  9996
2 55071  97.4268 220.5104 0012261 201.5294 158.5432 15.29772450 79124
FLOCK 4Y-2              
1 55074U 23001BT  24158.44953456  .00021584  00000+0  78003-3 0  9997
2 55074  97.4278 220.5976 0012131 202.4032 157.6679 15.28409400 79147
FLOCK 4Y-31             
1 55075U 23001BU  24158.17376208  .00095046  00000+0  18414-2 0  9995
2 55075  97.4224 223.5396 0010668 191.9410 168.1588 15.47303804 79332
FLOCK 4Y-21             
1 55077U 23001BW  24158.42792340  .00019502  00000+0  70671-3 0  9991
2 55077  97.4287 220.6736 0012320 201.1730 158.9001 15.28338233 79144
FLOCK 4Y-36             
1 55078U 23001BX  24158.42460902  .00019589  00000+0  69992-3 0  9997
2 55078  97.4262 220.6476 0012363 200.9906 159.0828 15.28800089 79151
FLOCK 4Y-13             
1 55079U 23001BY  24158.12178681  .00021701  00000+0  78513-3 0  9993
2 55079  97.4273 220.2448 0012245 202.4931 157.5773 15.28370234 79092
FLOCK 4Y-23             
1 55080U 23001BZ  24158.14480940  .00017029  00000+0  61014-3 0  9997
2 55080  97.4274 220.3712 0012982 198.0168 162.0613 15.28731369 79117
FLOCK 4Y-34             
1 55082U 23001CB  24158.41409726  .00018736  00000+0  68276-3 0  9995
2 55082  97.4261 220.4967 0012550 196.3450 163.7386 15.28160268 79146
FLOCK 4Y-27             
1 55083U 23001CC  24158.13228186  .00020808  00000+0  72782-3 0  9994
2 55083  97.4278 220.6008 0012750 199.0769 160.9995 15.29478520 79125
FLOCK 4Q-1              
1 58270U 23174Q   24158.35514149  .00011761  00000+0  55465-3 0  9994
2 58270  97.4602 233.1661 0009474 278.5375  81.4786 15.19594425 32065
FLOCK 4Q-16             
1 58271U 23174R   24158.17789454  .00011139  00000+0  52901-3 0  9999
2 58271  97.4571 232.8543 0009350 280.0061  80.0118 15.19366752 32030
FLOCK 4Q-11             
1 58273U 23174T   24158.17172345  .00011031  00000+0  52339-3 0  9992
2 58273  97.4591 232.9279 0009205 279.6169  80.4026 15.19402476 32039
FLOCK 4Q-36             
1 58274U 23174U   24158.45381949  .00012781  00000+0  59800-3 0  9999
2 58274  97.4599 233.3404 0008717 271.1211  88.9025 15.19852041 32089
FLOCK 4Q-12             
1 58275U 23174V   24158.17570398  .00014526  00000+0  67181-3 0  9997
2 58275  97.4556 232.9832 0008026 275.8702  84.1618 15.20229446 32043
FLOCK 4Q-19             
1 58278U 23174Y   24158.45764193  .00012659  00000+0  59135-3 0  9994
2 58278  97.4551 233.1867 0008102 272.9022  87.1285 15.19914929 32082
FLOCK 4Q-8              
1 58279U 23174Z   24158.47797047  .00012023  00000+0  56377-3 0  9991
2 58279  97.4618 233.3560 0009740 275.7488  84.2637 15.19785378 32088
FLOCK 4Q-28             
1 58280U 23174AA  24158.46268203  .00010322  00000+0  48309-3 0  9995
2 58280  97.4608 233.3349 0008523 273.7325  86.2935 15.19900619 32080
FLOCK 4Q-27             
1 58282U 23174AC  24158.19630668  .00013032  00000+0  61163-3 0  9999
2 58282  97.4553 232.9366 0008276 270.2387  89.7899 15.19744445 32046
FLOCK 4Q-17             
1 58283U 23174AD  24158.17380468  .00012938  00000+0  60177-3 0  9996
2 58283  97.4540 232.9362 0008561 266.6017  93.4239 15.20055097 32045
FLOCK 4Q-26             
1 58284U 23174AE  24158.17926820  .00012188  00000+0  56868-3 0  9994
2 58284  97.4608 233.1138 0009174 273.0333  86.9853 15.19956547 32046
FLOCK 4Q-31             
1 58285U 23174AF  24158.17630367  .00012569  00000+0  58552-3 0  9998
2 58285  97.4623 233.1606 0009707 273.1840  86.8284 15.20000639 32041
FLOCK 4Q-30             
1 58286U 23174AG  24158.17516030  .00012032  00000+0  56058-3 0  9993
2 58286  97.4624 233.1622 0009982 273.3074  86.7019 15.20005635 32043
PELICAN-3001            
1 58296U 23174AS  24158.48435078  .00007128  00000+0  34092-3 0  9994
2 58296  97.4589 233.2486 0011015 267.2180  92.7794 15.19243529 32088
FLOCK 4Q-25             
1 58303U 23174AZ  24158.17071808  .00012097  00000+0  56891-3 0  9998
2 58303  97.4531 232.9162 0009128 255.1933 104.8291 15.19684551 32042
FLOCK 4Q-29             
1 58304U 23174BA  24158.45170234  .00012274  00000+0  57955-3 0  9992
2 58304  97.4626 233.4079 0010275 257.5299 102.4786 15.19534131 32082
FLOCK 4Q-22             
1 58306U 23174BC  24158.17799270  .00012395  00000+0  58077-3 0  9990
2 58306  97.4547 232.9344 0009335 256.3526 103.6670 15.19806416 32049
FLOCK 4Q-23             
1 58307U 23174BD  24158.16877712  .00012197  00000+0  57340-3 0  9990
2 58307  97.4615 233.1499 0010733 260.4408  99.5615 15.19683587 32043
FLOCK 4Q-33             
1 58308U 23174BE  24158.19098924  .00011258  00000+0  52629-3 0  9996
2 58308  97.4557 233.0950 0010001 257.1326 102.8792 15.19905005 32057
FLOCK 4Q-35             
1 58309U 23174BF  24158.16724225  .00013734  00000+0  64267-3 0  9996
2 58309  97.4604 233.1207 0010853 263.6911  96.3088 15.19813424 32041
FLOCK 4Q-32             
1 58310U 23174BG  24158.46221409  .00025468  00000+0  10294-2 0  9994
2 58310  97.4611 234.1217 0009450 247.4810 112.5428 15.24684920 32134
FLOCK 4Q-14             
1 58311U 23174BH  24158.44716901  .00011504  00000+0  54596-3 0  9999
2 58311  97.4543 233.1846 0009253 252.2262 107.7963 15.19382936 32082
FLOCK 4Q-20             
1 58313U 23174BK  24158.18623216  .00012188  00000+0  56407-3 0  9990
2 58313  97.4610 233.2542 0010951 258.6688 101.3317 15.20223639 32058
FLOCK 4Q-24             
1 58314U 23174BL  24158.50175723  .00013494  00000+0  63315-3 0  9999
2 58314  97.4546 233.2810 0010071 252.8701 107.1431 15.19730957 32099
FLOCK 4Q-6              
1 58315U 23174BM  24158.19149524  .00011646  00000+0  55276-3 0  9999
2 58315  97.4545 232.9154 0009614 253.3969 106.6210 15.19372777 32045
FLOCK 4Q-34             
1 58316U 23174BN  24158.15261677  .00012706  00000+0  59444-3 0  9999
2 58316  97.4568 233.0174 0010623 256.8022 103.2028 15.19841522 32044
FLOCK 4Q-7              
1 58318U 23174BQ  24158.16773035  .00012396  00000+0  58370-3 0  9990
2 58318  97.4614 233.1392 0010995 255.1991 104.8026 15.19619287 32046
FLOCK 4Q-15             
1 58319U 23174BR  24158.44879865  .00012067  00000+0  56022-3 0  9997
2 58319  97.4606 233.5110 0010880 253.0137 106.9906 15.20116911 32095
FLOCK 4Q-2              
1 58320U 23174BS  24158.56001581  .00012539  00000+0  59151-3 0  9994
2 58320  97.4558 233.3833 0010056 251.7102 108.3039 15.19561803 32102
FLOCK 4Q-9              
1 58322U 23174BU  24158.15070228  .00010738  00000+0  50377-3 0  9995
2 58322  97.4572 233.0505 0010169 253.8269 106.1847 15.19792786 32047
FLOCK 4Q-10             
1 58324U 23174BW  24158.20016618  .00010104  00000+0  47100-3 0  9993
2 58324  97.4578 233.1507 0009999 252.2962 107.7181 15.20033483 32053
FLOCK 4Q-4              
1 58327U 23174BZ  24158.14876221  .00011364  00000+0  53465-3 0  9993
2 58327  97.4550 232.8361 0008493 277.4042  82.6227 15.19693185 32035
FLOCK 4Q-13             
1 58328U 23174CA  24158.16061058  .00012188  00000+0  57486-3 0  9992
2 58328  97.4619 232.9980 0010252 276.7515  83.2553 15.19573891 32033
FLOCK 4Q-21             
1 58329U 23174CB  24158.18696625  .00011720  00000+0  54808-3 0  9995
2 58329  97.4613 233.1138 0009687 275.9944  84.0187 15.19883527 32046
